{"type":"FeatureCollection","source":"US Census Bureau TIGERweb, County Subdivisions (Places_CouSub_ConCity_SubMCD/MapServer/1), STATE 42, COUNTY 089 and 095, simplified to 0.0004 degrees; retrieved 2026-10-09","features":[{"type":"Feature","properties":{"NAME":"Barrett township","COUNTY":"089","GEOID":"4208904320"},"geometry":{"type":"Polygon","coordinates":[[[-75.3371,41.14808],[-75.24949,41.14394],[-75.13843,41.21863],[-75.12972,41.2521],[-75.30735,41.24223],[-75.3371,41.14808]]]}},{"type":"Feature","properties":{"NAME":"Chestnuthill township","COUNTY":"089","GEOID":"4208913328"},"geometry":{"type":"Polygon","coordinates":[[[-75.49629,40.98895],[-75.49238,40.98078],[-75.48736,40.97441],[-75.47742,40.96399],[-75.42713,40.89712],[-75.33681,40.91784],[-75.41609,41.02209],[-75.49629,40.98895]]]}},{"type":"Feature","properties":{"NAME":"Coolbaugh township","COUNTY":"089","GEOID":"4208915960"},"geometry":{"type":"Polygon","coordinates":[[[-75.59863,41.16306],[-75.37838,41.11155],[-75.3785,41.12136],[-75.36479,41.13937],[-75.34122,41.13513],[-75.30735,41.24223],[-75.35903,41.23922],[-75.35995,41.23871],[-75.3637,41.23942],[-75.36602,41.239],[-75.36658,41.23828],[-75.37463,41.23778],[-75.50561,41.23254],[-75.50675,41.23208],[-75.50834,41.23295],[-75.50918,41.23071],[-75.50925,41.22799],[-75.51038,41.22688],[-75.51076,41.22515],[-75.51228,41.22424],[-75.51249,41.22312],[-75.51461,41.2221],[-75.51687,41.21924],[-75.52167,41.22197],[-75.52569,41.22307],[-75.52677,41.22381],[-75.52672,41.22507],[-75.52936,41.22659],[-75.53245,41.22532],[-75.53507,41.22503],[-75.53985,41.22546],[-75.54401,41.22351],[-75.54441,41.22184],[-75.55098,41.21532],[-75.55173,41.21315],[-75.55402,41.21168],[-75.55516,41.20899],[-75.55472,41.20765],[-75.55764,41.20677],[-75.55925,41.20695],[-75.56007,41.20505],[-75.56264,41.20535],[-75.56577,41.20115],[-75.56713,41.20069],[-75.56694,41.19961],[-75.56974,41.19874],[-75.56967,41.19712],[-75.5709,41.19536],[-75.56916,41.19366],[-75.57058,41.19261],[-75.57021,41.19113],[-75.573,41.18999],[-75.57637,41.18655],[-75.57621,41.18178],[-75.57554,41.18061],[-75.57665,41.17786],[-75.58272,41.17674],[-75.58817,41.17253],[-75.59454,41.17151],[-75.5983,41.17243],[-75.59775,41.17027],[-75.59803,41.16829],[-75.59625,41.16643],[-75.59703,41.16338],[-75.59863,41.16306]]]}},{"type":"Feature","properties":{"NAME":"Delaware Water Gap borough","COUNTY":"089","GEOID":"4208918736"},"geometry":{"type":"Polygon","coordinates":[[[-75.15639,40.98806],[-75.15235,40.98092],[-75.15084,40.9763],[-75.1457,40.97453],[-75.14326,40.96852],[-75.13896,40.95439],[-75.12873,40.95931],[-75.12023,40.9687],[-75.1226,40.97015],[-75.13017,40.96896],[-75.13262,40.97001],[-75.1347,40.97204],[-75.13553,40.9738],[-75.13552,40.97687],[-75.13252,40.98123],[-75.13153,40.98491],[-75.13152,40.98926],[-75.13756,40.9904],[-75.14423,40.98837],[-75.14968,40.99189],[-75.15639,40.98806]]]}},{"type":"Feature","properties":{"NAME":"East Stroudsburg borough","COUNTY":"089","GEOID":"4208921872"},"geometry":{"type":"Polygon","coordinates":[[[-75.19501,41.01825],[-75.19566,41.0179],[-75.19234,41.01139],[-75.19344,41.00743],[-75.1956,41.00731],[-75.19134,41.00411],[-75.19185,40.99931],[-75.18946,40.99797],[-75.18762,40.99585],[-75.18702,40.99202],[-75.18216,40.98459],[-75.18082,40.98416],[-75.17324,40.98619],[-75.16801,40.98658],[-75.16352,40.98813],[-75.16231,40.99357],[-75.16665,40.99925],[-75.16175,41.00015],[-75.16218,41.00415],[-75.16631,41.00752],[-75.16333,41.00856],[-75.16531,41.01042],[-75.16471,41.01072],[-75.16567,41.01222],[-75.16814,41.01125],[-75.16954,41.01288],[-75.17492,41.01005],[-75.17862,41.01514],[-75.17432,41.01726],[-75.17284,41.01894],[-75.17814,41.02462],[-75.18392,41.01773],[-75.18435,41.01581],[-75.18675,41.01581],[-75.1899,41.01435],[-75.19387,41.01887],[-75.19501,41.01825]]]}},{"type":"Feature","properties":{"NAME":"Eldred township","COUNTY":"089","GEOID":"4208922904"},"geometry":{"type":"Polygon","coordinates":[[[-75.51795,40.87819],[-75.48766,40.83803],[-75.47419,40.81475],[-75.44245,40.81837],[-75.42049,40.82345],[-75.41676,40.8261],[-75.38327,40.83104],[-75.37885,40.83253],[-75.42713,40.89712],[-75.44994,40.89238],[-75.44987,40.89148],[-75.45339,40.89058],[-75.45587,40.89021],[-75.45598,40.89112],[-75.51795,40.87819]]]}},{"type":"Feature","properties":{"NAME":"Hamilton township","COUNTY":"089","GEOID":"4208932176"},"geometry":{"type":"Polygon","coordinates":[[[-75.35429,40.94338],[-75.3554,40.94249],[-75.29483,40.86224],[-75.28404,40.86604],[-75.27353,40.87315],[-75.26722,40.88247],[-75.2325,40.89976],[-75.24113,40.90944],[-75.22182,40.91958],[-75.21819,40.92787],[-75.217,40.9284],[-75.21856,40.92867],[-75.21783,40.92966],[-75.23496,40.95473],[-75.27512,41.00685],[-75.31456,40.97629],[-75.35429,40.94338]]]}},{"type":"Feature","properties":{"NAME":"Jackson township","COUNTY":"089","GEOID":"4208937424"},"geometry":{"type":"Polygon","coordinates":[[[-75.41609,41.02209],[-75.3554,40.94249],[-75.31456,40.97629],[-75.28449,40.99948],[-75.39359,41.07536],[-75.41609,41.02209]]]}},{"type":"Feature","properties":{"NAME":"Middle Smithfield township","COUNTY":"089","GEOID":"4208949080"},"geometry":{"type":"Polygon","coordinates":[[[-75.18848,41.11581],[-75.1858,41.10683],[-75.1796,41.06303],[-75.04423,41.03068],[-75.04064,41.03237],[-75.03413,41.03735],[-75.02685,41.03973],[-75.02613,41.04195],[-75.02734,41.04383],[-75.02715,41.04525],[-75.01757,41.05585],[-75.01624,41.06016],[-75.01241,41.06726],[-75.00686,41.0676],[-75.00078,41.07321],[-74.99485,41.07656],[-74.98933,41.07832],[-74.98259,41.07917],[-74.97099,41.08529],[-74.96839,41.0878],[-74.96682,41.09252],[-74.96746,41.09533],[-74.97053,41.09595],[-74.9753,41.09407],[-74.98302,41.08909],[-74.98955,41.08827],[-74.99182,41.08913],[-74.99172,41.09228],[-74.99281,41.09356],[-74.99409,41.09386],[-74.9964,41.09299],[-74.99659,41.09079],[-74.99756,41.08962],[-75.00031,41.08949],[-75.00318,41.09177],[-75.00684,41.08851],[-75.00902,41.08788],[-75.01178,41.088],[-75.01277,41.08659],[-75.0126,41.0838],[-75.0143,41.08357],[-75.01855,41.08489],[-75.02045,41.08479],[-75.025,41.08352],[-75.02584,41.0806],[-75.02796,41.07987],[-75.02892,41.08069],[-75.0291,41.08285],[-75.03259,41.08527],[-75.03343,41.08732],[-75.03922,41.0888],[-75.07681,41.14112],[-75.15651,41.15034],[-75.18465,41.15271],[-75.18712,41.14508],[-75.18848,41.11581]]]}},{"type":"Feature","properties":{"NAME":"Mount Pocono borough","COUNTY":"089","GEOID":"4208951912"},"geometry":{"type":"Polygon","coordinates":[[[-75.3785,41.12136],[-75.37838,41.11155],[-75.35105,41.105],[-75.34671,41.11897],[-75.34247,41.11817],[-75.33918,41.11846],[-75.33285,41.12419],[-75.33238,41.12562],[-75.33375,41.12684],[-75.33847,41.12741],[-75.34077,41.12836],[-75.34361,41.12729],[-75.34122,41.13513],[-75.36479,41.13937],[-75.3785,41.12136]]]}},{"type":"Feature","properties":{"NAME":"Paradise township","COUNTY":"089","GEOID":"4208957856"},"geometry":{"type":"Polygon","coordinates":[[[-75.35105,41.105],[-75.33424,41.10031],[-75.22348,41.07336],[-75.24949,41.14394],[-75.3371,41.14808],[-75.34361,41.12729],[-75.34077,41.12836],[-75.33847,41.12741],[-75.33375,41.12684],[-75.33256,41.12603],[-75.33242,41.1249],[-75.33918,41.11846],[-75.34247,41.11817],[-75.34671,41.11897],[-75.35105,41.105]]]}},{"type":"Feature","properties":{"NAME":"Pocono township","COUNTY":"089","GEOID":"4208961728"},"geometry":{"type":"Polygon","coordinates":[[[-75.39367,41.07524],[-75.28449,40.99948],[-75.27512,41.00685],[-75.22348,41.07336],[-75.37845,41.11157],[-75.39367,41.07524]]]}},{"type":"Feature","properties":{"NAME":"Polk township","COUNTY":"089","GEOID":"4208961928"},"geometry":{"type":"Polygon","coordinates":[[[-75.57459,40.95132],[-75.56073,40.93425],[-75.51795,40.87819],[-75.45598,40.89112],[-75.45587,40.89021],[-75.45339,40.89058],[-75.44987,40.89148],[-75.44994,40.89238],[-75.42713,40.89712],[-75.47742,40.96399],[-75.48736,40.97441],[-75.49238,40.98078],[-75.49629,40.98895],[-75.49736,40.98844],[-75.49599,40.98718],[-75.57459,40.95132]]]}},{"type":"Feature","properties":{"NAME":"Price township","COUNTY":"089","GEOID":"4208962632"},"geometry":{"type":"Polygon","coordinates":[[[-75.24949,41.14394],[-75.22348,41.07336],[-75.1796,41.06303],[-75.1858,41.10683],[-75.1885,41.11489],[-75.18712,41.14508],[-75.18465,41.15271],[-75.15651,41.15034],[-75.13843,41.21863],[-75.24949,41.14394]]]}},{"type":"Feature","properties":{"NAME":"Ross township","COUNTY":"089","GEOID":"4208966280"},"geometry":{"type":"Polygon","coordinates":[[[-75.42713,40.89712],[-75.37885,40.83253],[-75.33979,40.84594],[-75.32093,40.85566],[-75.30059,40.85956],[-75.29483,40.86224],[-75.33681,40.91784],[-75.42713,40.89712]]]}},{"type":"Feature","properties":{"NAME":"Smithfield township","COUNTY":"089","GEOID":"4208971344"},"geometry":{"type":"Polygon","coordinates":[[[-75.19292,41.06611],[-75.18517,41.03322],[-75.18115,41.02094],[-75.17814,41.02462],[-75.17284,41.01894],[-75.17432,41.01726],[-75.17862,41.01514],[-75.17492,41.01005],[-75.16954,41.01288],[-75.16814,41.01125],[-75.16567,41.01222],[-75.16471,41.01072],[-75.16531,41.01042],[-75.16333,41.00856],[-75.16631,41.00752],[-75.16218,41.00415],[-75.16175,41.00015],[-75.16665,40.99925],[-75.16231,40.99357],[-75.16352,40.98813],[-75.16597,40.98699],[-75.17333,40.98617],[-75.16039,40.94849],[-75.15293,40.94931],[-75.14513,40.95158],[-75.13896,40.95439],[-75.14326,40.96852],[-75.1457,40.97453],[-75.15084,40.9763],[-75.15235,40.98092],[-75.15639,40.98806],[-75.14968,40.99189],[-75.14423,40.98837],[-75.13756,40.9904],[-75.13152,40.98926],[-75.1311,40.99046],[-75.12858,40.99287],[-75.12342,40.99613],[-75.1106,41.00217],[-75.10911,41.0041],[-75.093,41.0097],[-75.0845,41.01592],[-75.0811,41.01684],[-75.075,41.01713],[-75.07053,41.01862],[-75.04874,41.02922],[-75.04423,41.03068],[-75.19292,41.06611]]]}},{"type":"Feature","properties":{"NAME":"Stroud township","COUNTY":"089","GEOID":"4208974880"},"geometry":{"type":"Polygon","coordinates":[[[-75.27319,41.00934],[-75.27512,41.00685],[-75.23496,40.95473],[-75.21783,40.92966],[-75.21856,40.92867],[-75.217,40.9284],[-75.19554,40.93634],[-75.18753,40.93713],[-75.17807,40.94032],[-75.17684,40.94552],[-75.16946,40.94801],[-75.16039,40.94849],[-75.17333,40.98617],[-75.1809,40.98416],[-75.17936,40.97943],[-75.19737,40.9752],[-75.20105,40.97537],[-75.20249,40.97476],[-75.21471,40.9762],[-75.21579,40.98471],[-75.21501,40.98427],[-75.21272,40.98462],[-75.21129,40.98633],[-75.20879,40.9877],[-75.20712,40.98735],[-75.20512,40.988],[-75.20015,40.991],[-75.19642,40.99214],[-75.19719,40.99356],[-75.18914,40.99754],[-75.19185,40.99931],[-75.19134,41.00411],[-75.1956,41.00731],[-75.19344,41.00743],[-75.19234,41.01139],[-75.19566,41.0179],[-75.19387,41.01887],[-75.1899,41.01435],[-75.18675,41.01581],[-75.18435,41.01581],[-75.18392,41.01773],[-75.18115,41.02094],[-75.18517,41.03322],[-75.19292,41.06611],[-75.22348,41.07336],[-75.27319,41.00934]]]}},{"type":"Feature","properties":{"NAME":"Stroudsburg borough","COUNTY":"089","GEOID":"4208974888"},"geometry":{"type":"Polygon","coordinates":[[[-75.21579,40.98471],[-75.21471,40.9762],[-75.20249,40.97476],[-75.20105,40.97537],[-75.19737,40.9752],[-75.17936,40.97943],[-75.1809,40.98416],[-75.18242,40.98489],[-75.18702,40.99202],[-75.18762,40.99585],[-75.18914,40.99754],[-75.19719,40.99356],[-75.19642,40.99214],[-75.20015,40.991],[-75.20512,40.988],[-75.20712,40.98735],[-75.20879,40.9877],[-75.21129,40.98633],[-75.21272,40.98462],[-75.21501,40.98427],[-75.21579,40.98471]]]}},{"type":"Feature","properties":{"NAME":"Tobyhanna township","COUNTY":"089","GEOID":"4208976960"},"geometry":{"type":"Polygon","coordinates":[[[-75.64941,41.1223],[-75.64747,41.12154],[-75.64575,41.11813],[-75.64671,41.1142],[-75.64587,41.11295],[-75.6397,41.11359],[-75.63623,41.11298],[-75.63415,41.11202],[-75.63298,41.10853],[-75.62967,41.10701],[-75.62779,41.10708],[-75.62613,41.1106],[-75.62503,41.11138],[-75.6204,41.10928],[-75.62061,41.10672],[-75.61553,41.10445],[-75.61575,41.10287],[-75.61399,41.09968],[-75.61426,41.09617],[-75.61359,41.09477],[-75.61269,41.09424],[-75.60573,41.09436],[-75.60411,41.09338],[-75.60398,41.09244],[-75.60505,41.09171],[-75.60607,41.08639],[-75.60564,41.08495],[-75.60439,41.08428],[-75.6001,41.08417],[-75.59638,41.08081],[-75.59421,41.08085],[-75.59196,41.07832],[-75.59045,41.07785],[-75.58915,41.07651],[-75.58748,41.07633],[-75.58554,41.07383],[-75.39098,41.0818],[-75.37845,41.11157],[-75.59806,41.16309],[-75.60071,41.16174],[-75.60105,41.15953],[-75.60439,41.15653],[-75.60315,41.15388],[-75.6033,41.15188],[-75.60715,41.15026],[-75.60931,41.15005],[-75.61354,41.15127],[-75.61558,41.1507],[-75.6141,41.14649],[-75.61417,41.14517],[-75.61531,41.14386],[-75.6214,41.14109],[-75.62489,41.13795],[-75.62821,41.13721],[-75.62863,41.13444],[-75.62794,41.13262],[-75.62545,41.13186],[-75.62515,41.13091],[-75.62714,41.12991],[-75.62807,41.12829],[-75.63283,41.12795],[-75.63416,41.12325],[-75.63503,41.12311],[-75.63877,41.12636],[-75.64116,41.12691],[-75.64863,41.12543],[-75.6493,41.12468],[-75.64941,41.1223]]]}},{"type":"Feature","properties":{"NAME":"Tunkhannock township","COUNTY":"089","GEOID":"4208977776"},"geometry":{"type":"Polygon","coordinates":[[[-75.58554,41.07383],[-75.58297,41.07292],[-75.5832,41.07044],[-75.58104,41.06779],[-75.57894,41.06875],[-75.57663,41.06777],[-75.57627,41.06538],[-75.57461,41.06373],[-75.57489,41.06269],[-75.57114,41.05926],[-75.5714,41.05773],[-75.56889,41.05661],[-75.56841,41.05525],[-75.57014,41.05478],[-75.57053,41.05391],[-75.56965,41.0524],[-75.57055,41.05152],[-75.56934,41.0509],[-75.56984,41.05006],[-75.56587,41.05],[-75.56376,41.04916],[-75.56315,41.0498],[-75.56195,41.04952],[-75.5085,40.99818],[-75.49736,40.98844],[-75.41609,41.02209],[-75.39098,41.0818],[-75.58554,41.07383]]]}},{"type":"Feature","properties":{"NAME":"Allen township","COUNTY":"095","GEOID":"4209500948"},"geometry":{"type":"Polygon","coordinates":[[[-75.5272,40.73407],[-75.52593,40.73146],[-75.52621,40.72676],[-75.52553,40.7201],[-75.52256,40.71349],[-75.51563,40.7022],[-75.51025,40.70235],[-75.50558,40.70399],[-75.50054,40.70441],[-75.50027,40.70211],[-75.49532,40.70131],[-75.4937,40.697],[-75.49459,40.69599],[-75.49099,40.69395],[-75.48976,40.6923],[-75.48541,40.692],[-75.48551,40.69389],[-75.47858,40.69467],[-75.47841,40.69271],[-75.47438,40.69058],[-75.47459,40.68105],[-75.47213,40.67022],[-75.47059,40.6707],[-75.46354,40.67019],[-75.46223,40.66853],[-75.46324,40.66674],[-75.46496,40.66574],[-75.46512,40.66311],[-75.46616,40.66131],[-75.44529,40.66882],[-75.4583,40.69743],[-75.45912,40.70413],[-75.4581,40.70931],[-75.45989,40.71328],[-75.45708,40.72929],[-75.4574,40.73212],[-75.4703,40.73119],[-75.47225,40.73869],[-75.5272,40.73407]]]}},{"type":"Feature","properties":{"NAME":"Bangor borough","COUNTY":"095","GEOID":"4209504032"},"geometry":{"type":"Polygon","coordinates":[[[-75.22336,40.86479],[-75.22428,40.86401],[-75.22043,40.86174],[-75.21608,40.86303],[-75.21599,40.8606],[-75.20971,40.85817],[-75.20976,40.85472],[-75.20693,40.85648],[-75.20343,40.85718],[-75.19904,40.85683],[-75.19971,40.85993],[-75.1965,40.86039],[-75.19756,40.86201],[-75.20041,40.86233],[-75.20103,40.86439],[-75.19509,40.87439],[-75.19939,40.87611],[-75.19746,40.87792],[-75.19826,40.87868],[-75.19764,40.87924],[-75.20576,40.87883],[-75.22039,40.87256],[-75.22177,40.87041],[-75.22237,40.86799],[-75.22137,40.86649],[-75.22302,40.86602],[-75.22237,40.86564],[-75.22336,40.86479]]]}},{"type":"Feature","properties":{"NAME":"Bath borough","COUNTY":"095","GEOID":"4209504432"},"geometry":{"type":"Polygon","coordinates":[[[-75.40148,40.7273],[-75.40151,40.72655],[-75.39829,40.72297],[-75.3991,40.71836],[-75.3933,40.72097],[-75.38109,40.72253],[-75.3829,40.73432],[-75.38837,40.73262],[-75.38897,40.73388],[-75.39374,40.73546],[-75.40071,40.73536],[-75.40148,40.7273]]]}},{"type":"Feature","properties":{"NAME":"Bethlehem city","COUNTY":"095","GEOID":"4209506088"},"geometry":{"type":"Polygon","coordinates":[[[-75.39687,40.64455],[-75.39594,40.63957],[-75.39341,40.63986],[-75.39258,40.63937],[-75.38763,40.634],[-75.38741,40.63214],[-75.38884,40.62871],[-75.38315,40.62394],[-75.38414,40.62016],[-75.38304,40.61735],[-75.37961,40.61669],[-75.37813,40.61536],[-75.38856,40.61442],[-75.39064,40.60068],[-75.36752,40.60066],[-75.36746,40.59967],[-75.36684,40.59965],[-75.36289,40.59179],[-75.3617,40.58531],[-75.36426,40.58505],[-75.36368,40.58024],[-75.36042,40.5793],[-75.35882,40.578],[-75.34499,40.57896],[-75.34396,40.58096],[-75.34413,40.5823],[-75.34736,40.58428],[-75.34823,40.58577],[-75.34714,40.58716],[-75.34424,40.58802],[-75.34452,40.59308],[-75.34364,40.59639],[-75.34041,40.59616],[-75.34008,40.5932],[-75.3308,40.59376],[-75.31948,40.60136],[-75.31402,40.60357],[-75.303,40.60619],[-75.30342,40.61728],[-75.30606,40.61688],[-75.30569,40.61512],[-75.30754,40.61477],[-75.30888,40.6161],[-75.31204,40.61629],[-75.31226,40.61773],[-75.31146,40.61776],[-75.31122,40.61972],[-75.31227,40.62007],[-75.31658,40.61849],[-75.32358,40.61788],[-75.32629,40.61636],[-75.3268,40.61666],[-75.32764,40.62232],[-75.33395,40.62217],[-75.33562,40.6206],[-75.347,40.62034],[-75.34741,40.62298],[-75.34939,40.6228],[-75.35019,40.62915],[-75.34229,40.62971],[-75.3445,40.64513],[-75.33626,40.65207],[-75.33824,40.65393],[-75.34178,40.66209],[-75.34271,40.6672],[-75.36239,40.67273],[-75.37305,40.66778],[-75.37283,40.66627],[-75.37561,40.66626],[-75.38137,40.66088],[-75.3797,40.65712],[-75.3816,40.65364],[-75.38167,40.65159],[-75.37974,40.648],[-75.38164,40.64732],[-75.3852,40.6474],[-75.38727,40.64592],[-75.39687,40.64455]]]}},{"type":"Feature","properties":{"NAME":"Bethlehem township","COUNTY":"095","GEOID":"4209506096"},"geometry":{"type":"Polygon","coordinates":[[[-75.37481,40.68137],[-75.37305,40.66778],[-75.36239,40.67273],[-75.34271,40.6672],[-75.34178,40.66209],[-75.33824,40.65393],[-75.33626,40.65207],[-75.3445,40.64513],[-75.34293,40.63423],[-75.3384,40.63473],[-75.3393,40.64005],[-75.33636,40.64037],[-75.33581,40.63717],[-75.3351,40.63727],[-75.33529,40.63652],[-75.33278,40.63329],[-75.33146,40.63342],[-75.3338,40.63231],[-75.33255,40.63101],[-75.33035,40.63316],[-75.32669,40.63364],[-75.31082,40.63043],[-75.30182,40.63472],[-75.2966,40.63924],[-75.29483,40.6401],[-75.29186,40.6409],[-75.28221,40.64105],[-75.28269,40.64233],[-75.28374,40.64242],[-75.27398,40.6445],[-75.27009,40.64615],[-75.277,40.69242],[-75.37481,40.68137]]]}},{"type":"Feature","properties":{"NAME":"Bushkill township","COUNTY":"095","GEOID":"4209510400"},"geometry":{"type":"Polygon","coordinates":[[[-75.37365,40.83429],[-75.36456,40.79684],[-75.3684,40.78981],[-75.36124,40.76599],[-75.34897,40.74177],[-75.34602,40.74219],[-75.3465,40.74501],[-75.33863,40.74899],[-75.3391,40.75288],[-75.27612,40.7585],[-75.27925,40.77516],[-75.30412,40.83122],[-75.31613,40.85658],[-75.32093,40.85566],[-75.33979,40.84594],[-75.37365,40.83429]]]}},{"type":"Feature","properties":{"NAME":"Chapman borough","COUNTY":"095","GEOID":"4209512656"},"geometry":{"type":"Polygon","coordinates":[[[-75.40802,40.75774],[-75.40913,40.75708],[-75.40428,40.75332],[-75.4033,40.7545],[-75.39942,40.75345],[-75.39839,40.7562],[-75.39589,40.75562],[-75.39265,40.75658],[-75.3999,40.76416],[-75.40409,40.76293],[-75.40716,40.7633],[-75.4052,40.75944],[-75.40802,40.75774]]]}},{"type":"Feature","properties":{"NAME":"East Allen township","COUNTY":"095","GEOID":"4209520736"},"geometry":{"type":"Polygon","coordinates":[[[-75.45987,40.71351],[-75.4581,40.70931],[-75.45912,40.70413],[-75.4583,40.69743],[-75.44529,40.66882],[-75.37657,40.69377],[-75.38109,40.72253],[-75.3933,40.72097],[-75.3991,40.71836],[-75.39829,40.72297],[-75.40151,40.72655],[-75.40071,40.73536],[-75.39374,40.73546],[-75.38897,40.73388],[-75.38837,40.73262],[-75.3829,40.73432],[-75.38343,40.73798],[-75.4115,40.7359],[-75.42086,40.73571],[-75.42784,40.73686],[-75.45077,40.73271],[-75.4574,40.73212],[-75.45708,40.72929],[-75.45987,40.71351]]]}},{"type":"Feature","properties":{"NAME":"East Bangor borough","COUNTY":"095","GEOID":"4209520776"},"geometry":{"type":"Polygon","coordinates":[[[-75.19933,40.87621],[-75.19385,40.87371],[-75.19289,40.87352],[-75.19169,40.87465],[-75.18835,40.87239],[-75.18628,40.87318],[-75.18338,40.87324],[-75.18367,40.87468],[-75.18094,40.87505],[-75.17999,40.87418],[-75.17853,40.87425],[-75.17674,40.87614],[-75.1784,40.8783],[-75.17721,40.88026],[-75.179,40.88121],[-75.17842,40.88181],[-75.18,40.88226],[-75.18124,40.88367],[-75.17556,40.8865],[-75.17593,40.8892],[-75.17676,40.88893],[-75.17827,40.89126],[-75.17827,40.89224],[-75.18747,40.88883],[-75.18631,40.88735],[-75.19365,40.88364],[-75.19532,40.88092],[-75.19809,40.87964],[-75.19764,40.87924],[-75.19826,40.87868],[-75.19746,40.87792],[-75.19933,40.87621]]]}},{"type":"Feature","properties":{"NAME":"Easton city","COUNTY":"095","GEOID":"4209521648"},"geometry":{"type":"MultiPolygon","coordinates":[[[[-75.28374,40.64242],[-75.28269,40.64233],[-75.28209,40.64073],[-75.27267,40.64211],[-75.26978,40.6434],[-75.2673,40.64551],[-75.25079,40.65133],[-75.23728,40.66289],[-75.2367,40.66637],[-75.2322,40.67294],[-75.23118,40.67258],[-75.23117,40.67104],[-75.2292,40.67164],[-75.22843,40.67272],[-75.2219,40.67332],[-75.22164,40.67149],[-75.21669,40.67182],[-75.21536,40.67401],[-75.21188,40.67424],[-75.21153,40.67244],[-75.20914,40.67243],[-75.20947,40.67454],[-75.19932,40.67544],[-75.1994,40.67647],[-75.19781,40.67665],[-75.19448,40.67933],[-75.19441,40.67675],[-75.19696,40.67666],[-75.19703,40.67583],[-75.19458,40.6764],[-75.19413,40.67564],[-75.1906,40.67807],[-75.19016,40.67941],[-75.19692,40.6813],[-75.20092,40.6855],[-75.20392,40.6915],[-75.19872,40.7053],[-75.19582,40.7098],[-75.19442,40.71402],[-75.19288,40.71565],[-75.1944,40.71666],[-75.19675,40.71449],[-75.1979,40.7157],[-75.20071,40.7146],[-75.20293,40.71321],[-75.20183,40.71223],[-75.20742,40.7086],[-75.20898,40.71027],[-75.21072,40.70956],[-75.2091,40.70746],[-75.2119,40.70561],[-75.22045,40.70472],[-75.22012,40.70559],[-75.22138,40.70515],[-75.22128,40.7046],[-75.23342,40.70308],[-75.23073,40.67819],[-75.23428,40.67361],[-75.23973,40.66416],[-75.24245,40.66151],[-75.24386,40.66191],[-75.24568,40.65977],[-75.24487,40.66002],[-75.24519,40.6597],[-75.25541,40.6552],[-75.2632,40.64939],[-75.27364,40.6446],[-75.28374,40.64242]]],[[[-75.24569,40.69889],[-75.24496,40.69368],[-75.24341,40.69395],[-75.24295,40.69154],[-75.23912,40.69236],[-75.23975,40.69421],[-75.23843,40.6943],[-75.2385,40.69958],[-75.24569,40.69889]]]]}},{"type":"Feature","properties":{"NAME":"Forks township","COUNTY":"095","GEOID":"4209526728"},"geometry":{"type":"Polygon","coordinates":[[[-75.25478,40.74695],[-75.25259,40.74607],[-75.25055,40.74646],[-75.24975,40.74566],[-75.24952,40.74241],[-75.24756,40.74298],[-75.2463,40.74071],[-75.24681,40.73635],[-75.24451,40.73276],[-75.24354,40.72894],[-75.24417,40.72852],[-75.24843,40.72894],[-75.24955,40.72725],[-75.24955,40.72631],[-75.24463,40.72061],[-75.24621,40.71368],[-75.24571,40.711],[-75.24615,40.70935],[-75.24712,40.70825],[-75.25209,40.70662],[-75.2527,40.70266],[-75.25136,40.70099],[-75.24973,40.70161],[-75.24938,40.70331],[-75.24654,40.70438],[-75.243,40.70265],[-75.24065,40.69986],[-75.23574,40.70217],[-75.23337,40.70254],[-75.23342,40.70308],[-75.22128,40.7046],[-75.22138,40.70515],[-75.22012,40.70559],[-75.22045,40.70472],[-75.2119,40.70561],[-75.2091,40.70746],[-75.21072,40.70956],[-75.20898,40.71027],[-75.20742,40.7086],[-75.20183,40.71223],[-75.20293,40.71321],[-75.20071,40.7146],[-75.1979,40.7157],[-75.19675,40.71449],[-75.1944,40.71666],[-75.19288,40.71565],[-75.18716,40.71906],[-75.18575,40.72155],[-75.18637,40.72397],[-75.18605,40.72568],[-75.18221,40.73056],[-75.1828,40.73365],[-75.18578,40.73727],[-75.19535,40.74547],[-75.19668,40.74813],[-75.19686,40.7501],[-75.19653,40.75163],[-75.19542,40.75287],[-75.21798,40.76936],[-75.21989,40.77849],[-75.23689,40.76558],[-75.25017,40.75908],[-75.2491,40.7523],[-75.25043,40.75199],[-75.25279,40.75334],[-75.25372,40.74676],[-75.25478,40.74695]]]}},{"type":"Feature","properties":{"NAME":"Freemansburg borough","COUNTY":"095","GEOID":"4209527760"},"geometry":{"type":"Polygon","coordinates":[[[-75.35019,40.62915],[-75.34939,40.6228],[-75.34741,40.62298],[-75.347,40.62034],[-75.33562,40.6206],[-75.33395,40.62217],[-75.33319,40.62407],[-75.33255,40.63101],[-75.3338,40.63231],[-75.33146,40.63342],[-75.33278,40.63329],[-75.33529,40.63652],[-75.3351,40.63727],[-75.33581,40.63717],[-75.33636,40.64037],[-75.3393,40.64005],[-75.3384,40.63473],[-75.34293,40.63423],[-75.34229,40.62971],[-75.35019,40.62915]]]}},{"type":"Feature","properties":{"NAME":"Glendon borough","COUNTY":"095","GEOID":"4209529568"},"geometry":{"type":"Polygon","coordinates":[[[-75.24636,40.65499],[-75.24462,40.65381],[-75.24388,40.65044],[-75.24209,40.64824],[-75.24063,40.64922],[-75.23421,40.65672],[-75.23264,40.66265],[-75.22636,40.66794],[-75.22719,40.67284],[-75.22843,40.67272],[-75.2292,40.67164],[-75.23117,40.67104],[-75.23118,40.67258],[-75.2322,40.67294],[-75.2367,40.66637],[-75.23715,40.66305],[-75.24636,40.65499]]]}},{"type":"Feature","properties":{"NAME":"Hanover township","COUNTY":"095","GEOID":"4209532432"},"geometry":{"type":"Polygon","coordinates":[[[-75.4304,40.67415],[-75.42985,40.67346],[-75.43012,40.66843],[-75.40893,40.64827],[-75.39695,40.63774],[-75.39248,40.63412],[-75.38746,40.63312],[-75.38832,40.6349],[-75.39258,40.63937],[-75.39341,40.63986],[-75.39594,40.63957],[-75.39687,40.64455],[-75.38727,40.64592],[-75.38536,40.64735],[-75.38137,40.64737],[-75.37954,40.64837],[-75.38167,40.65159],[-75.3816,40.65364],[-75.3797,40.65712],[-75.38137,40.66088],[-75.37561,40.66626],[-75.37283,40.66627],[-75.37657,40.69377],[-75.4304,40.67415]]]}},{"type":"Feature","properties":{"NAME":"Hellertown borough","COUNTY":"095","GEOID":"4209533744"},"geometry":{"type":"Polygon","coordinates":[[[-75.34823,40.58577],[-75.34736,40.58428],[-75.34413,40.5823],[-75.34396,40.58096],[-75.34515,40.57875],[-75.34398,40.57448],[-75.34471,40.57139],[-75.34298,40.56829],[-75.34109,40.56698],[-75.33321,40.56743],[-75.33355,40.57108],[-75.33971,40.57107],[-75.33982,40.57252],[-75.32726,40.57326],[-75.32807,40.58329],[-75.33341,40.58342],[-75.33379,40.58836],[-75.3308,40.59376],[-75.34008,40.5932],[-75.34041,40.59616],[-75.34364,40.59639],[-75.34452,40.59308],[-75.34424,40.58802],[-75.34714,40.58716],[-75.34823,40.58577]]]}},{"type":"Feature","properties":{"NAME":"Lehigh township","COUNTY":"095","GEOID":"4209542424"},"geometry":{"type":"Polygon","coordinates":[[[-75.6089,40.7874],[-75.60546,40.78078],[-75.60479,40.77772],[-75.60467,40.77578],[-75.60659,40.77301],[-75.60666,40.77132],[-75.60393,40.76817],[-75.60287,40.76596],[-75.60337,40.75872],[-75.59348,40.76419],[-75.58808,40.74357],[-75.59029,40.74279],[-75.58798,40.74038],[-75.59423,40.73876],[-75.59256,40.73613],[-75.59021,40.73446],[-75.5879,40.73389],[-75.57712,40.73522],[-75.57308,40.73438],[-75.57063,40.73247],[-75.56886,40.72735],[-75.5678,40.72593],[-75.5613,40.72184],[-75.55817,40.72089],[-75.55416,40.72104],[-75.54432,40.72505],[-75.54181,40.72792],[-75.54031,40.73606],[-75.53737,40.73759],[-75.53498,40.73761],[-75.53015,40.73634],[-75.5272,40.73407],[-75.47225,40.73869],[-75.4753,40.75011],[-75.49597,40.81101],[-75.50802,40.8091],[-75.51905,40.80881],[-75.52844,40.80672],[-75.54155,40.80682],[-75.55136,40.80455],[-75.55753,40.80119],[-75.56509,40.80111],[-75.57482,40.79915],[-75.57749,40.79941],[-75.59545,40.7933],[-75.59841,40.79012],[-75.60261,40.78804],[-75.6089,40.7874]]]}},{"type":"Feature","properties":{"NAME":"Lower Mount Bethel township","COUNTY":"095","GEOID":"4209545016"},"geometry":{"type":"Polygon","coordinates":[[[-75.22315,40.79576],[-75.21798,40.76936],[-75.19542,40.75287],[-75.1918,40.75583],[-75.18304,40.75934],[-75.17904,40.7619],[-75.17748,40.76422],[-75.17562,40.77292],[-75.17159,40.77774],[-75.16952,40.77847],[-75.16365,40.77839],[-75.14938,40.77479],[-75.13911,40.77361],[-75.1333,40.77412],[-75.12587,40.78403],[-75.12309,40.78675],[-75.11685,40.78935],[-75.11119,40.78991],[-75.1085,40.79109],[-75.1008,40.7998],[-75.10028,40.80118],[-75.10074,40.80549],[-75.10028,40.80758],[-75.09669,40.81189],[-75.09052,40.81591],[-75.08539,40.82197],[-75.08393,40.82447],[-75.08371,40.82714],[-75.12903,40.84898],[-75.22315,40.79576]]]}},{"type":"Feature","properties":{"NAME":"Lower Nazareth township","COUNTY":"095","GEOID":"4209545024"},"geometry":{"type":"Polygon","coordinates":[[[-75.37967,40.71386],[-75.37481,40.68137],[-75.277,40.69242],[-75.27885,40.70336],[-75.28037,40.70323],[-75.2808,40.70824],[-75.27978,40.70875],[-75.28376,40.73511],[-75.29763,40.73387],[-75.29706,40.73097],[-75.30478,40.73045],[-75.30647,40.73183],[-75.31174,40.73134],[-75.31131,40.7327],[-75.33605,40.73048],[-75.33422,40.72114],[-75.3439,40.72004],[-75.34347,40.7172],[-75.37967,40.71386]]]}},{"type":"Feature","properties":{"NAME":"Lower Saucon township","COUNTY":"095","GEOID":"4209545104"},"geometry":{"type":"Polygon","coordinates":[[[-75.4041,40.58152],[-75.40441,40.58115],[-75.33305,40.53677],[-75.29353,40.56198],[-75.25654,40.58273],[-75.26642,40.5969],[-75.26888,40.64428],[-75.27087,40.64276],[-75.27407,40.64176],[-75.28209,40.64073],[-75.29186,40.6409],[-75.29483,40.6401],[-75.2966,40.63924],[-75.30182,40.63472],[-75.31082,40.63043],[-75.32669,40.63364],[-75.33035,40.63316],[-75.33255,40.63101],[-75.33319,40.62407],[-75.33415,40.62217],[-75.32764,40.62232],[-75.3268,40.61666],[-75.32629,40.61636],[-75.32358,40.61788],[-75.31658,40.61849],[-75.31227,40.62007],[-75.31122,40.61972],[-75.31146,40.61776],[-75.31226,40.61773],[-75.31204,40.61629],[-75.30888,40.6161],[-75.30754,40.61477],[-75.30569,40.61512],[-75.30606,40.61688],[-75.30342,40.61728],[-75.303,40.60619],[-75.31402,40.60357],[-75.31948,40.60136],[-75.3308,40.59376],[-75.33379,40.58836],[-75.33341,40.58342],[-75.32807,40.58329],[-75.32726,40.57326],[-75.33982,40.57252],[-75.33971,40.57107],[-75.33355,40.57108],[-75.33321,40.56743],[-75.34109,40.56698],[-75.34298,40.56829],[-75.34471,40.57139],[-75.34398,40.57448],[-75.34485,40.57633],[-75.34499,40.57896],[-75.35882,40.578],[-75.36042,40.5793],[-75.36368,40.58024],[-75.36426,40.58505],[-75.3617,40.58531],[-75.36289,40.59179],[-75.36684,40.59965],[-75.36746,40.59967],[-75.36752,40.60066],[-75.39064,40.60068],[-75.39128,40.59655],[-75.4041,40.58152]]]}},{"type":"Feature","properties":{"NAME":"Moore township","COUNTY":"095","GEOID":"4209550824"},"geometry":{"type":"Polygon","coordinates":[[[-75.49597,40.81101],[-75.4753,40.75011],[-75.4703,40.73119],[-75.45077,40.73271],[-75.42784,40.73686],[-75.42086,40.73571],[-75.4115,40.7359],[-75.37522,40.73866],[-75.34897,40.74177],[-75.36124,40.76599],[-75.3684,40.78981],[-75.36456,40.79684],[-75.37365,40.83429],[-75.38327,40.83104],[-75.41676,40.8261],[-75.42049,40.82345],[-75.44245,40.81837],[-75.47254,40.81505],[-75.47855,40.81308],[-75.49597,40.81101]],[[-75.40913,40.75708],[-75.4052,40.75944],[-75.40716,40.7633],[-75.40409,40.76293],[-75.3999,40.76416],[-75.39265,40.75658],[-75.39589,40.75562],[-75.39839,40.7562],[-75.39942,40.75345],[-75.4033,40.7545],[-75.40428,40.75332],[-75.40913,40.75708]]]}},{"type":"Feature","properties":{"NAME":"Nazareth borough","COUNTY":"095","GEOID":"4209552808"},"geometry":{"type":"Polygon","coordinates":[[[-75.33071,40.7333],[-75.32856,40.73198],[-75.32513,40.73155],[-75.31131,40.7327],[-75.31174,40.73134],[-75.30647,40.73183],[-75.30478,40.73045],[-75.29706,40.73097],[-75.29782,40.73503],[-75.30101,40.73563],[-75.30054,40.73804],[-75.30137,40.73811],[-75.29744,40.74143],[-75.3009,40.74293],[-75.30002,40.74402],[-75.30259,40.74661],[-75.30342,40.74605],[-75.30571,40.74665],[-75.30671,40.74791],[-75.30653,40.74878],[-75.30885,40.7492],[-75.31053,40.75135],[-75.31322,40.75128],[-75.31377,40.75208],[-75.32295,40.75131],[-75.32139,40.74108],[-75.32524,40.7413],[-75.33071,40.7333]]]}},{"type":"Feature","properties":{"NAME":"North Catasauqua borough","COUNTY":"095","GEOID":"4209554872"},"geometry":{"type":"Polygon","coordinates":[[[-75.48393,40.65992],[-75.48147,40.65574],[-75.46626,40.66126],[-75.46512,40.66311],[-75.46496,40.66574],[-75.46259,40.66741],[-75.46227,40.66866],[-75.4635,40.67018],[-75.47059,40.6707],[-75.47395,40.66972],[-75.4738,40.66906],[-75.47742,40.6686],[-75.48081,40.66691],[-75.48363,40.66687],[-75.48393,40.65992]]]}},{"type":"Feature","properties":{"NAME":"Northampton borough","COUNTY":"095","GEOID":"4209554696"},"geometry":{"type":"Polygon","coordinates":[[[-75.51529,40.70224],[-75.50974,40.69416],[-75.50305,40.68972],[-75.4983,40.6795],[-75.49593,40.6779],[-75.49113,40.677],[-75.48733,40.6745],[-75.48503,40.6715],[-75.48363,40.66687],[-75.48081,40.66691],[-75.47742,40.6686],[-75.4738,40.66906],[-75.47395,40.66972],[-75.47213,40.67022],[-75.47459,40.68105],[-75.47438,40.69058],[-75.47841,40.69271],[-75.47858,40.69467],[-75.48551,40.69389],[-75.48541,40.692],[-75.48969,40.69227],[-75.49099,40.69395],[-75.49459,40.69599],[-75.4937,40.697],[-75.49532,40.70131],[-75.50027,40.70211],[-75.50054,40.70441],[-75.50558,40.70399],[-75.51025,40.70235],[-75.51529,40.70224]]]}},{"type":"Feature","properties":{"NAME":"Palmer township","COUNTY":"095","GEOID":"4209557672"},"geometry":{"type":"Polygon","coordinates":[[[-75.2848,40.74319],[-75.27978,40.70875],[-75.2808,40.70824],[-75.28037,40.70323],[-75.27885,40.70336],[-75.27823,40.70012],[-75.27009,40.64615],[-75.26268,40.64969],[-75.25541,40.6552],[-75.24519,40.6597],[-75.24487,40.66002],[-75.24568,40.65977],[-75.24386,40.66191],[-75.24245,40.66151],[-75.23937,40.6646],[-75.24004,40.66719],[-75.24634,40.67009],[-75.24582,40.67382],[-75.24747,40.68102],[-75.25237,40.68708],[-75.24887,40.68782],[-75.2479,40.69023],[-75.24341,40.69395],[-75.24496,40.69368],[-75.24569,40.69889],[-75.2385,40.69958],[-75.2385,40.6981],[-75.23337,40.70254],[-75.23574,40.70217],[-75.24065,40.69986],[-75.24277,40.70246],[-75.24587,40.70434],[-75.24938,40.70331],[-75.24973,40.70161],[-75.25072,40.70094],[-75.25253,40.7021],[-75.25202,40.70673],[-75.24705,40.70829],[-75.24571,40.711],[-75.24621,40.71368],[-75.24465,40.72111],[-75.24955,40.72631],[-75.2495,40.7274],[-75.24843,40.72894],[-75.24417,40.72852],[-75.24354,40.72894],[-75.24401,40.73152],[-75.24671,40.73609],[-75.2468,40.73725],[-75.25368,40.73704],[-75.25344,40.73542],[-75.26366,40.73452],[-75.26423,40.73739],[-75.26173,40.73786],[-75.26406,40.74574],[-75.25817,40.74633],[-75.25764,40.74769],[-75.26416,40.74921],[-75.26767,40.74875],[-75.27328,40.74959],[-75.27407,40.75035],[-75.27315,40.75309],[-75.27508,40.75455],[-75.27357,40.74404],[-75.2848,40.74319]]]}},{"type":"Feature","properties":{"NAME":"Pen Argyl borough","COUNTY":"095","GEOID":"4209558696"},"geometry":{"type":"Polygon","coordinates":[[[-75.26773,40.8707],[-75.2613,40.86013],[-75.25257,40.85827],[-75.24938,40.85564],[-75.24373,40.85717],[-75.24402,40.86241],[-75.24146,40.86525],[-75.24153,40.86782],[-75.24386,40.87004],[-75.24532,40.869],[-75.24508,40.87337],[-75.24313,40.87334],[-75.24231,40.87391],[-75.24274,40.87435],[-75.24391,40.87471],[-75.24463,40.87374],[-75.24526,40.87388],[-75.25361,40.88009],[-75.26773,40.8707]]]}},{"type":"Feature","properties":{"NAME":"Plainfield township","COUNTY":"095","GEOID":"4209561088"},"geometry":{"type":"Polygon","coordinates":[[[-75.31613,40.85658],[-75.30412,40.83122],[-75.27925,40.77516],[-75.27612,40.7585],[-75.27463,40.75863],[-75.27471,40.75971],[-75.27089,40.76037],[-75.27223,40.76363],[-75.27207,40.76444],[-75.27114,40.76468],[-75.27022,40.76447],[-75.2699,40.76251],[-75.26825,40.76202],[-75.26556,40.75806],[-75.26282,40.75813],[-75.26249,40.75877],[-75.26053,40.75816],[-75.26053,40.75923],[-75.26018,40.75889],[-75.25922,40.75977],[-75.25047,40.76041],[-75.25017,40.75908],[-75.23689,40.76558],[-75.21989,40.77849],[-75.22812,40.82254],[-75.23833,40.87075],[-75.2442,40.8942],[-75.26722,40.88247],[-75.27353,40.87315],[-75.28404,40.86604],[-75.29007,40.86393],[-75.27978,40.85174],[-75.28081,40.8515],[-75.28098,40.84672],[-75.2898,40.83788],[-75.29455,40.83748],[-75.29433,40.83585],[-75.29557,40.83463],[-75.29692,40.8354],[-75.29644,40.8372],[-75.30521,40.8371],[-75.29402,40.85918],[-75.29411,40.86108],[-75.29494,40.8622],[-75.30059,40.85956],[-75.31613,40.85658]],[[-75.26766,40.87063],[-75.25361,40.88009],[-75.24526,40.87388],[-75.24463,40.87374],[-75.24391,40.87471],[-75.24274,40.87435],[-75.24231,40.87391],[-75.24313,40.87334],[-75.24508,40.87337],[-75.24532,40.869],[-75.24386,40.87004],[-75.24153,40.86782],[-75.24146,40.86525],[-75.24402,40.86241],[-75.24373,40.85717],[-75.24938,40.85564],[-75.25257,40.85827],[-75.2613,40.86013],[-75.26766,40.87063]]]}},{"type":"Feature","properties":{"NAME":"Portland borough","COUNTY":"095","GEOID":"4209562264"},"geometry":{"type":"Polygon","coordinates":[[[-75.10686,40.92263],[-75.10441,40.91992],[-75.10196,40.91859],[-75.10088,40.91604],[-75.09988,40.91693],[-75.09686,40.91371],[-75.08758,40.91883],[-75.09553,40.92415],[-75.10046,40.93026],[-75.10586,40.92721],[-75.10686,40.92263]]]}},{"type":"Feature","properties":{"NAME":"Roseto borough","COUNTY":"095","GEOID":"4209566168"},"geometry":{"type":"Polygon","coordinates":[[[-75.23,40.86947],[-75.22766,40.86816],[-75.2271,40.86919],[-75.22661,40.86861],[-75.22451,40.87031],[-75.22405,40.86879],[-75.22358,40.86887],[-75.22132,40.87279],[-75.21426,40.87476],[-75.21113,40.87634],[-75.21199,40.88201],[-75.21369,40.88336],[-75.22293,40.88624],[-75.22691,40.88026],[-75.22469,40.87991],[-75.22496,40.87911],[-75.22388,40.87884],[-75.22691,40.87593],[-75.22621,40.87392],[-75.23,40.87102],[-75.22902,40.8701],[-75.23,40.86947]]]}},{"type":"Feature","properties":{"NAME":"Stockertown borough","COUNTY":"095","GEOID":"4209574232"},"geometry":{"type":"Polygon","coordinates":[[[-75.27612,40.7585],[-75.27582,40.75491],[-75.27315,40.75309],[-75.274,40.75171],[-75.27404,40.7501],[-75.27123,40.74911],[-75.26761,40.74875],[-75.26416,40.74921],[-75.25372,40.74676],[-75.25279,40.75334],[-75.25043,40.75199],[-75.2491,40.7523],[-75.25047,40.76041],[-75.25922,40.75977],[-75.26018,40.75889],[-75.26053,40.75923],[-75.26053,40.75816],[-75.26249,40.75877],[-75.26282,40.75813],[-75.26556,40.75806],[-75.26825,40.76202],[-75.2699,40.76251],[-75.27022,40.76447],[-75.27114,40.76468],[-75.27207,40.76444],[-75.27223,40.76363],[-75.27089,40.76037],[-75.27471,40.75971],[-75.27463,40.75863],[-75.27612,40.7585]]]}},{"type":"Feature","properties":{"NAME":"Tatamy borough","COUNTY":"095","GEOID":"4209576144"},"geometry":{"type":"Polygon","coordinates":[[[-75.26423,40.73739],[-75.26366,40.73452],[-75.25344,40.73542],[-75.25368,40.73704],[-75.2468,40.73725],[-75.2463,40.74071],[-75.24756,40.74298],[-75.24952,40.74241],[-75.24975,40.74566],[-75.25055,40.74646],[-75.25282,40.7461],[-75.25764,40.74769],[-75.25817,40.74633],[-75.26406,40.74574],[-75.26173,40.73786],[-75.26423,40.73739]]]}},{"type":"Feature","properties":{"NAME":"Upper Mount Bethel township","COUNTY":"095","GEOID":"4209579184"},"geometry":{"type":"Polygon","coordinates":[[[-75.24113,40.90944],[-75.2325,40.89976],[-75.23429,40.89891],[-75.19562,40.88079],[-75.19365,40.88364],[-75.18631,40.88735],[-75.18747,40.88883],[-75.17827,40.89224],[-75.17827,40.89126],[-75.17676,40.88893],[-75.17593,40.8892],[-75.17556,40.8865],[-75.18124,40.88367],[-75.18,40.88226],[-75.17842,40.88181],[-75.179,40.88121],[-75.17721,40.88026],[-75.1784,40.8783],[-75.17674,40.87614],[-75.17853,40.87425],[-75.17999,40.87418],[-75.18094,40.87505],[-75.18267,40.8748],[-75.08371,40.82714],[-75.08552,40.83009],[-75.09494,40.8371],[-75.09701,40.83934],[-75.09759,40.84304],[-75.09578,40.84708],[-75.09096,40.84919],[-75.07668,40.84988],[-75.07083,40.84739],[-75.06601,40.84759],[-75.06433,40.84834],[-75.06325,40.85019],[-75.06431,40.85393],[-75.0638,40.85559],[-75.05846,40.86071],[-75.05291,40.86374],[-75.05178,40.86383],[-75.05103,40.86566],[-75.05084,40.86807],[-75.05151,40.87022],[-75.05366,40.87366],[-75.05865,40.87765],[-75.06544,40.88568],[-75.07393,40.89218],[-75.07534,40.89417],[-75.07598,40.89569],[-75.0752,40.90018],[-75.07609,40.90704],[-75.07696,40.90986],[-75.07929,40.91388],[-75.08758,40.91883],[-75.09686,40.91371],[-75.09988,40.91693],[-75.10088,40.91604],[-75.10196,40.91859],[-75.10394,40.91953],[-75.10692,40.9224],[-75.10586,40.92721],[-75.10046,40.93026],[-75.10551,40.93629],[-75.10615,40.93967],[-75.11169,40.94813],[-75.11777,40.95301],[-75.11912,40.95902],[-75.12081,40.96288],[-75.11954,40.96606],[-75.12023,40.9687],[-75.12923,40.95893],[-75.14513,40.95158],[-75.15293,40.94931],[-75.16946,40.94801],[-75.17684,40.94552],[-75.17807,40.94032],[-75.18753,40.93713],[-75.19554,40.93634],[-75.2178,40.9281],[-75.22182,40.91958],[-75.24113,40.90944]]]}},{"type":"Feature","properties":{"NAME":"Upper Nazareth township","COUNTY":"095","GEOID":"4209579192"},"geometry":{"type":"Polygon","coordinates":[[[-75.38343,40.73798],[-75.37967,40.71386],[-75.34347,40.7172],[-75.3439,40.72004],[-75.33422,40.72114],[-75.33605,40.73048],[-75.32513,40.73155],[-75.32856,40.73198],[-75.33071,40.7333],[-75.32524,40.7413],[-75.32139,40.74108],[-75.32295,40.75131],[-75.31377,40.75208],[-75.31322,40.75128],[-75.31053,40.75135],[-75.30885,40.7492],[-75.30653,40.74878],[-75.30671,40.74791],[-75.30571,40.74665],[-75.30342,40.74605],[-75.30259,40.74661],[-75.30002,40.74402],[-75.3009,40.74293],[-75.29744,40.74143],[-75.30137,40.73811],[-75.30054,40.73804],[-75.30101,40.73563],[-75.29782,40.73503],[-75.29763,40.73387],[-75.28376,40.73511],[-75.2848,40.74319],[-75.27357,40.74404],[-75.27612,40.7585],[-75.3391,40.75288],[-75.33863,40.74899],[-75.3465,40.74501],[-75.34602,40.74219],[-75.38343,40.73798]]]}},{"type":"Feature","properties":{"NAME":"Walnutport borough","COUNTY":"095","GEOID":"4209580800"},"geometry":{"type":"Polygon","coordinates":[[[-75.60353,40.75719],[-75.60169,40.74955],[-75.5967,40.7436],[-75.59423,40.73876],[-75.58798,40.74038],[-75.59029,40.74279],[-75.58808,40.74357],[-75.59348,40.76419],[-75.60337,40.75872],[-75.60353,40.75719]]]}},{"type":"Feature","properties":{"NAME":"Washington township","COUNTY":"095","GEOID":"4209581296"},"geometry":{"type":"Polygon","coordinates":[[[-75.2442,40.8942],[-75.23833,40.87075],[-75.22812,40.82254],[-75.22315,40.79576],[-75.12903,40.84898],[-75.18267,40.8748],[-75.18367,40.87468],[-75.18338,40.87324],[-75.18628,40.87318],[-75.18835,40.87239],[-75.19169,40.87465],[-75.19289,40.87352],[-75.19509,40.87439],[-75.20103,40.86439],[-75.20041,40.86233],[-75.19756,40.86201],[-75.1965,40.86039],[-75.19971,40.85993],[-75.19904,40.85683],[-75.20343,40.85718],[-75.20693,40.85648],[-75.20976,40.85472],[-75.20971,40.85817],[-75.21599,40.8606],[-75.21608,40.86303],[-75.22043,40.86174],[-75.22428,40.86401],[-75.22237,40.86564],[-75.22302,40.86602],[-75.22137,40.86649],[-75.22237,40.86799],[-75.22068,40.8723],[-75.21753,40.87419],[-75.22132,40.87279],[-75.22358,40.86887],[-75.22405,40.86879],[-75.22451,40.87031],[-75.22661,40.86861],[-75.2271,40.86919],[-75.22766,40.86816],[-75.23,40.86947],[-75.22902,40.8701],[-75.23,40.87102],[-75.22621,40.87392],[-75.22691,40.87593],[-75.22388,40.87884],[-75.22496,40.87911],[-75.22469,40.87991],[-75.22691,40.88026],[-75.22293,40.88624],[-75.21369,40.88336],[-75.21199,40.88201],[-75.21113,40.87634],[-75.20576,40.87883],[-75.19764,40.87924],[-75.19809,40.87964],[-75.19562,40.88079],[-75.23429,40.89891],[-75.2442,40.8942]]]}},{"type":"Feature","properties":{"NAME":"West Easton borough","COUNTY":"095","GEOID":"4209582832"},"geometry":{"type":"Polygon","coordinates":[[[-75.24192,40.67863],[-75.23974,40.67867],[-75.23734,40.67296],[-75.23924,40.67092],[-75.23795,40.66677],[-75.2367,40.66984],[-75.23073,40.67819],[-75.23144,40.6845],[-75.23505,40.68398],[-75.23605,40.68447],[-75.24002,40.68145],[-75.24192,40.67863]]]}},{"type":"Feature","properties":{"NAME":"Williams township","COUNTY":"095","GEOID":"4209585256"},"geometry":{"type":"Polygon","coordinates":[[[-75.26888,40.64428],[-75.26642,40.5969],[-75.25654,40.58273],[-75.23729,40.59056],[-75.1968,40.60858],[-75.20135,40.61463],[-75.20181,40.61719],[-75.20071,40.61836],[-75.19789,40.61933],[-75.19069,40.61996],[-75.18928,40.62149],[-75.18858,40.62463],[-75.19069,40.63589],[-75.19352,40.63927],[-75.19535,40.64304],[-75.20047,40.6469],[-75.20045,40.64922],[-75.19786,40.65205],[-75.19798,40.65474],[-75.19574,40.65621],[-75.19085,40.66194],[-75.18275,40.66597],[-75.17749,40.6726],[-75.17695,40.67669],[-75.17952,40.67901],[-75.18514,40.67996],[-75.19016,40.67941],[-75.1906,40.67807],[-75.19349,40.67588],[-75.19413,40.67564],[-75.19458,40.6764],[-75.19703,40.67583],[-75.19696,40.67666],[-75.19441,40.67675],[-75.19448,40.67933],[-75.19781,40.67665],[-75.1994,40.67647],[-75.19932,40.67544],[-75.20947,40.67454],[-75.20914,40.67243],[-75.21153,40.67244],[-75.21188,40.67424],[-75.21536,40.67401],[-75.21669,40.67182],[-75.22164,40.67149],[-75.2219,40.67332],[-75.22719,40.67284],[-75.22636,40.66794],[-75.23264,40.66265],[-75.23433,40.65653],[-75.24173,40.64842],[-75.24388,40.65044],[-75.24462,40.65381],[-75.24636,40.65499],[-75.25166,40.65087],[-75.26723,40.64554],[-75.26888,40.64428]]]}},{"type":"Feature","properties":{"NAME":"Wilson borough","COUNTY":"095","GEOID":"4209585592"},"geometry":{"type":"Polygon","coordinates":[[[-75.25237,40.68708],[-75.24747,40.68102],[-75.24582,40.67382],[-75.24634,40.67009],[-75.24004,40.66719],[-75.23943,40.66481],[-75.23795,40.66677],[-75.23924,40.67092],[-75.23734,40.67296],[-75.23974,40.67867],[-75.24192,40.67863],[-75.24002,40.68145],[-75.23605,40.68447],[-75.23505,40.68398],[-75.23133,40.68477],[-75.23335,40.70243],[-75.2385,40.6981],[-75.23843,40.6943],[-75.23975,40.69421],[-75.23912,40.69236],[-75.24295,40.69154],[-75.24341,40.69395],[-75.2479,40.69023],[-75.24887,40.68782],[-75.25237,40.68708]]]}},{"type":"Feature","properties":{"NAME":"Wind Gap borough","COUNTY":"095","GEOID":"4209585664"},"geometry":{"type":"Polygon","coordinates":[[[-75.30442,40.83868],[-75.30521,40.8371],[-75.29644,40.8372],[-75.29692,40.8354],[-75.29557,40.83463],[-75.29433,40.83585],[-75.29455,40.83748],[-75.2898,40.83788],[-75.28098,40.84672],[-75.28081,40.8515],[-75.27978,40.85174],[-75.29007,40.86393],[-75.29494,40.8622],[-75.29411,40.86108],[-75.29402,40.85918],[-75.30442,40.83868]]]}}]}